start=new Date('2022-07-07T00:00:00.000Z').valueOf();
sats=[{"DECAY_DATE":null,"MEAN_MOTION_DDOT":"0.0000000000000","OBJECT_TYPE":"PAYLOAD","EPOCH":"2022-07-06T13:46:32.343744","CENTER_NAME":"EARTH","RCS_SIZE":"LARGE","SEMIMAJOR_AXIS":"6917.901","TLE_LINE2":"2 49434  53.2173 134.1221 0003493  59.6016 300.5321 15.08833333 37109","OBJECT_ID":"2021-104AC","TIME_SYSTEM":"UTC","ARG_OF_PERICENTER":"59.6016","BSTAR":"0.00002385100000","MEAN_MOTION_DOT":"0.00000091","TLE_LINE1":"1 49434U 21104AC  22187.57398546  .00000091  00000-0  23851-4 0  9992","PERIAPSIS":"537.349","GP_ID":"207541086","RA_OF_ASC_NODE":"134.1221","MEAN_MOTION":"15.08833333","REF_FRAME":"TEME","ECCENTRICITY":"0.00034930","MEAN_ANOMALY":"300.5321","COUNTRY_CODE":"US","ELEMENT_SET_NO":"999","APOAPSIS":"542.182","MEAN_ELEMENT_THEORY":"SGP4","REV_AT_EPOCH":"3710","FILE":"3508782","PERIOD":"95.438","CLASSIFICATION_TYPE":"U","NORAD_CAT_ID":"49434","LAUNCH_DATE":"2021-11-13","OBJECT_NAME":"STARLINK-3134","EPHEMERIS_TYPE":"0","SITE":"AFETR","INCLINATION":"53.2173"},{"MEAN_MOTION_DDOT":"0.0000000000000","EPOCH":"2022-07-06T06:46:37.291584","OBJECT_TYPE":"PAYLOAD","DECAY_DATE":null,"BSTAR":"0.00010386000000","MEAN_MOTION_DOT":"0.00001365","SEMIMAJOR_AXIS":"6917.889","RCS_SIZE":"LARGE","CENTER_NAME":"EARTH","ARG_OF_PERICENTER":"62.4200","TIME_SYSTEM":"UTC","TLE_LINE2":"2 49435  53.2166 115.4282 0002764  62.4200 297.7072 15.08837326 36259","OBJECT_ID":"2021-104AD","REF_FRAME":"TEME","RA_OF_ASC_NODE":"115.4282","MEAN_MOTION":"15.08837326","ECCENTRICITY":"0.00027640","MEAN_ANOMALY":"297.7072","TLE_LINE1":"1 49435U 21104AD  22187.28237606  .00001365  00000-0  10386-3 0  9993","GP_ID":"207539835","PERIAPSIS":"537.841","EPHEMERIS_TYPE":"0","LAUNCH_DATE":"2021-11-13","OBJECT_NAME":"STARLINK-3117","INCLINATION":"53.2166","SITE":"AFETR","COUNTRY_CODE":"US","FILE":"3508782","NORAD_CAT_ID":"49435","PERIOD":"95.438","CLASSIFICATION_TYPE":"U","ELEMENT_SET_NO":"999","APOAPSIS":"541.666","REV_AT_EPOCH":"3625","MEAN_ELEMENT_THEORY":"SGP4"},{"REV_AT_EPOCH":"3625","MEAN_ELEMENT_THEORY":"SGP4","APOAPSIS":"541.102","ELEMENT_SET_NO":"999","PERIOD":"95.438","NORAD_CAT_ID":"49436","CLASSIFICATION_TYPE":"U","FILE":"3508782","COUNTRY_CODE":"US","SITE":"AFETR","INCLINATION":"53.2166","OBJECT_NAME":"STARLINK-3049","LAUNCH_DATE":"2021-11-13","EPHEMERIS_TYPE":"0","PERIAPSIS":"538.435","GP_ID":"207540084","TLE_LINE1":"1 49436U 21104AE  22187.28141612  .00000744  00000-0  64871-4 0  9994","ECCENTRICITY":"0.00019280","MEAN_ANOMALY":"305.4751","MEAN_MOTION":"15.08832387","RA_OF_ASC_NODE":"115.4175","REF_FRAME":"TEME","OBJECT_ID":"2021-104AE","TLE_LINE2":"2 49436  53.2166 115.4175 0001928  54.6421 305.4751 15.08832387 36253","TIME_SYSTEM":"UTC","ARG_OF_PERICENTER":"54.6421","CENTER_NAME":"EARTH","SEMIMAJOR_AXIS":"6917.904","RCS_SIZE":"LARGE","MEAN_MOTION_DOT":"0.00000744","BSTAR":"0.00006487100000","DECAY_DATE":null,"EPOCH":"2022-07-06T06:45:14.352768","OBJECT_TYPE":"PAYLOAD","MEAN_MOTION_DDOT":"0.0000000000000"},{"DECAY_DATE":null,"MEAN_MOTION_DDOT":"0.0000000000000","OBJECT_TYPE":"PAYLOAD","EPOCH":"2022-07-06T04:59:15.130464","RCS_SIZE":"LARGE","SEMIMAJOR_AXIS":"6917.884","CENTER_NAME":"EARTH","TIME_SYSTEM":"UTC","ARG_OF_PERICENTER":"57.5232","TLE_LINE2":"2 49437  53.2182 115.7704 0003105  57.5232 302.6060 15.08838947 36243","OBJECT_ID":"2021-104AF","MEAN_MOTION_DOT":"0.00002178","BSTAR":"0.00015496000000","TLE_LINE1":"1 49437U 21104AF  22187.20781401  .00002178  00000-0  15496-3 0  9994","GP_ID":"207541335","PERIAPSIS":"537.601","REF_FRAME":"TEME","RA_OF_ASC_NODE":"115.7704","MEAN_MOTION":"15.08838947","MEAN_ANOMALY":"302.6060","ECCENTRICITY":"0.00031050","COUNTRY_CODE":"US","FILE":"3508782","NORAD_CAT_ID":"49437","PERIOD":"95.438","CLASSIFICATION_TYPE":"U","APOAPSIS":"541.897","ELEMENT_SET_NO":"999","MEAN_ELEMENT_THEORY":"SGP4","REV_AT_EPOCH":"3624","EPHEMERIS_TYPE":"0","LAUNCH_DATE":"2021-11-13","OBJECT_NAME":"STARLINK-3130","INCLINATION":"53.2182","SITE":"AFETR"},{"TLE_LINE2":"2 49438  53.2170 113.1038 0003323  62.7821 297.3509 15.08835713 37402","OBJECT_ID":"2021-104AG","ARG_OF_PERICENTER":"62.7821","TIME_SYSTEM":"UTC","CENTER_NAME":"EARTH","SEMIMAJOR_AXIS":"6917.893","RCS_SIZE":"LARGE","BSTAR":"0.00017473000000","MEAN_MOTION_DOT":"0.00002493","DECAY_DATE":null,"OBJECT_TYPE":"PAYLOAD","EPOCH":"2022-07-06T19:12:27.214272","MEAN_MOTION_DDOT":"0.0000000000000","APOAPSIS":"542.057","ELEMENT_SET_NO":"999","MEAN_ELEMENT_THEORY":"SGP4","REV_AT_EPOCH":"3740","FILE":"3508878","CLASSIFICATION_TYPE":"U","PERIOD":"95.438","NORAD_CAT_ID":"49438","COUNTRY_CODE":"US","SITE":"AFETR","INCLINATION":"53.2170","LAUNCH_DATE":"2021-11-13","OBJECT_NAME":"STARLINK-3044","EPHEMERIS_TYPE":"0","PERIAPSIS":"537.460","GP_ID":"207544542","TLE_LINE1":"1 49438U 21104AG  22187.80031498  .00002493  00000-0  17473-3 0  9992","ECCENTRICITY":"0.00033230","MEAN_ANOMALY":"297.3509","RA_OF_ASC_NODE":"113.1038","MEAN_MOTION":"15.08835713","REF_FRAME":"TEME"},{"ECCENTRICITY":"0.00033970","MEAN_ANOMALY":"299.3752","REF_FRAME":"TEME","RA_OF_ASC_NODE":"114.3770","MEAN_MOTION":"15.08823038","GP_ID":"207540334","PERIAPSIS":"537.447","TLE_LINE1":"1 49439U 21104AH  22187.51695502  .00000300  00000-0  36982-4 0  9995","INCLINATION":"53.2194","SITE":"AFETR","EPHEMERIS_TYPE":"0","OBJECT_NAME":"STARLINK-3108","LAUNCH_DATE":"2021-11-13","CLASSIFICATION_TYPE":"U","PERIOD":"95.439","NORAD_CAT_ID":"49439","FILE":"3508782","REV_AT_EPOCH":"3629","MEAN_ELEMENT_THEORY":"SGP4","ELEMENT_SET_NO":"999","APOAPSIS":"542.147","COUNTRY_CODE":"US","OBJECT_TYPE":"PAYLOAD","EPOCH":"2022-07-06T12:24:24.913728","MEAN_MOTION_DDOT":"0.0000000000000","DECAY_DATE":null,"BSTAR":"0.00003698200000","MEAN_MOTION_DOT":"0.00000300","TIME_SYSTEM":"UTC","ARG_OF_PERICENTER":"60.7579","OBJECT_ID":"2021-104AH","TLE_LINE2":"2 49439  53.2194 114.3770 0003397  60.7579 299.3752 15.08823038 36299","SEMIMAJOR_AXIS":"6917.932","RCS_SIZE":"LARGE","CENTER_NAME":"EARTH"},{"BSTAR":"0.00018203000000","MEAN_MOTION_DOT":"0.00002610","CENTER_NAME":"EARTH","SEMIMAJOR_AXIS":"6917.885","RCS_SIZE":"LARGE","OBJECT_ID":"2021-104AJ","TLE_LINE2":"2 49440  53.2178 114.3173 0003348  57.4207 302.7108 15.08838397 36295","TIME_SYSTEM":"UTC","ARG_OF_PERICENTER":"57.4207","MEAN_MOTION_DDOT":"0.0000000000000","OBJECT_TYPE":"PAYLOAD","EPOCH":"2022-07-06T12:45:36.427104","DECAY_DATE":null,"OBJECT_NAME":"STARLINK-3105","LAUNCH_DATE":"2021-11-13","EPHEMERIS_TYPE":"0","SITE":"AFETR","INCLINATION":"53.2178","COUNTRY_CODE":"US","REV_AT_EPOCH":"3629","MEAN_ELEMENT_THEORY":"SGP4","ELEMENT_SET_NO":"999","APOAPSIS":"542.066","PERIOD":"95.438","NORAD_CAT_ID":"49440","CLASSIFICATION_TYPE":"U","FILE":"3508782","MEAN_MOTION":"15.08838397","RA_OF_ASC_NODE":"114.3173","REF_FRAME":"TEME","MEAN_ANOMALY":"302.7108","ECCENTRICITY":"0.00033480","TLE_LINE1":"1 49440U 21104AJ  22187.53167161  .00002610  00000-0  18203-3 0  9995","PERIAPSIS":"537.434","GP_ID":"207540584"},{"CENTER_NAME":"EARTH","RCS_SIZE":"LARGE","SEMIMAJOR_AXIS":"6917.897","OBJECT_ID":"2021-104AK","TLE_LINE2":"2 49441  53.2193 114.3880 0003135  61.2049 298.9258 15.08834664 36294","TIME_SYSTEM":"UTC","ARG_OF_PERICENTER":"61.2049","MEAN_MOTION_DOT":"0.00000602","BSTAR":"0.00005598300000","DECAY_DATE":null,"MEAN_MOTION_DDOT":"0.0000000000000","EPOCH":"2022-07-06T12:19:05.825568","OBJECT_TYPE":"PAYLOAD","COUNTRY_CODE":"US","REV_AT_EPOCH":"3629","MEAN_ELEMENT_THEORY":"SGP4","ELEMENT_SET_NO":"999","APOAPSIS":"541.930","PERIOD":"95.438","NORAD_CAT_ID":"49441","CLASSIFICATION_TYPE":"U","FILE":"3508782","OBJECT_NAME":"STARLINK-3128","LAUNCH_DATE":"2021-11-13","EPHEMERIS_TYPE":"0","SITE":"AFETR","INCLINATION":"53.2193","TLE_LINE1":"1 49441U 21104AK  22187.51326187  .00000602  00000-0  55983-4 0  9995","PERIAPSIS":"537.593","GP_ID":"207540836","MEAN_MOTION":"15.08834664","RA_OF_ASC_NODE":"114.3880","REF_FRAME":"TEME","ECCENTRICITY":"0.00031350","MEAN_ANOMALY":"298.9258"},{"EPOCH":"2022-07-06T12:40:17.998176","OBJECT_TYPE":"PAYLOAD","MEAN_MOTION_DDOT":"0.0000000000000","DECAY_DATE":null,"MEAN_MOTION_DOT":"0.00000288","BSTAR":"0.00003622000000","TIME_SYSTEM":"UTC","ARG_OF_PERICENTER":"61.9550","TLE_LINE2":"2 49442  53.2169 114.3257 0003285  61.9550 298.1774 15.08831726 36297","OBJECT_ID":"2021-104AL","SEMIMAJOR_AXIS":"6917.906","RCS_SIZE":"LARGE","CENTER_NAME":"EARTH","MEAN_ANOMALY":"298.1774","ECCENTRICITY":"0.00032850","REF_FRAME":"TEME","RA_OF_ASC_NODE":"114.3257","MEAN_MOTION":"15.08831726","GP_ID":"207541087","PERIAPSIS":"537.498","TLE_LINE1":"1 49442U 21104AL  22187.52798609  .00000288  00000-0  36220-4 0  9992","INCLINATION":"53.2169","SITE":"AFETR","EPHEMERIS_TYPE":"0","LAUNCH_DATE":"2021-11-13","OBJECT_NAME":"STARLINK-3098","FILE":"3508782","CLASSIFICATION_TYPE":"U","PERIOD":"95.438","NORAD_CAT_ID":"49442","ELEMENT_SET_NO":"999","APOAPSIS":"542.043","REV_AT_EPOCH":"3629","MEAN_ELEMENT_THEORY":"SGP4","COUNTRY_CODE":"US"},{"PERIAPSIS":"537.457","GP_ID":"207539836","TLE_LINE1":"1 49443U 21104AM  22187.50958604  .00000569  00000-0  53878-4 0  9994","ECCENTRICITY":"0.00033390","MEAN_ANOMALY":"302.4898","RA_OF_ASC_NODE":"114.4112","MEAN_MOTION":"15.08833065","REF_FRAME":"TEME","REV_AT_EPOCH":"3629","MEAN_ELEMENT_THEORY":"SGP4","APOAPSIS":"542.076","ELEMENT_SET_NO":"999","CLASSIFICATION_TYPE":"U","PERIOD":"95.438","NORAD_CAT_ID":"49443","FILE":"3508782","COUNTRY_CODE":"US","SITE":"AFETR","INCLINATION":"53.2199","OBJECT_NAME":"STARLINK-3136","LAUNCH_DATE":"2021-11-13","EPHEMERIS_TYPE":"0","DECAY_DATE":null,"OBJECT_TYPE":"PAYLOAD","EPOCH":"2022-07-06T12:13:48.233856","MEAN_MOTION_DDOT":"0.0000000000000","OBJECT_ID":"2021-104AM","TLE_LINE2":"2 49443  53.2199 114.4112 0003339  57.6417 302.4898 15.08833065 36290","ARG_OF_PERICENTER":"57.6417","TIME_SYSTEM":"UTC","CENTER_NAME":"EARTH","RCS_SIZE":"LARGE","SEMIMAJOR_AXIS":"6917.902","MEAN_MOTION_DOT":"0.00000569","BSTAR":"0.00005387800000"}];
